ISS OBJECT XX           
1 66911U 98067XX  26065.27905272  .00237204  00000+0  16237-2 0  9994
2 66911  51.6211  81.6018 0007007  62.4231 297.7478 15.73472479 14656
ISS OBJECT XY           
1 66912U 98067XY  26065.25754875  .00090381  00000+0  97321-3 0  9991
2 66912  51.6266  84.4872 0003031  69.1167 291.0151 15.62944629 14611
ISS OBJECT XZ           
1 67683U 98067XZ  26065.24980627  .00039477  00000+0  65901-3 0  9990
2 67683  51.6308  88.9378 0009404 174.3573 185.7524 15.51506562  4254
GXIBA-1                 
1 67684U 98067YA  26065.22771507  .00075699  00000+0  11560-2 0  9991
2 67684  51.6295  88.7906 0010987 164.2519 195.8815 15.53679638  4253
CORAL                   
1 67685U 98067YB  26065.24612910  .00042651  00000+0  70253-3 0  9993
2 67685  51.6312  88.9138 0011323 170.6186 189.5017 15.51824110  4258
ISS OBJECT YC           
1 67686U 98067YC  26065.24171538  .00050083  00000+0  81033-3 0  9996
2 67686  51.6306  88.8853 0007809 138.1788 221.9799 15.52288949  4259
LEOPARD                 
1 67687U 98067YD  26065.24784318  .00042747  00000+0  70897-3 0  9997
2 67687  51.6309  88.9257 0007791 142.6903 217.4629 15.51667616  4175
ISS OBJECT YE           
1 67688U 98067YE  26065.24369296  .00045678  00000+0  74593-3 0  9995
2 67688  51.6311  88.8989 0007710 138.4184 221.7393 15.52071816  4173
CREW DRAGON 12          
1 67796U 26031A   26065.22200803  .00008136  00000+0  15844-3 0  9995
2 67796  51.6317  89.5003 0008136 162.2758 197.8515 15.48470661555670
