CCSDS_OMM_VERS = 2.0
CREATION_DATE  = 
ORIGINATOR     = 

OBJECT_NAME    = ISS OBJECT XX
OBJECT_ID      = 1998-067XX
CENTER_NAME    = EARTH
REF_FRAME      = TEME
TIME_SYSTEM    = UTC
MEAN_ELEMENT_THEORY = SGP/SGP4

EPOCH          = 2026-03-06T06:41:50.155008
MEAN_MOTION    = 15.73472479
ECCENTRICITY   = .00070071
INCLINATION    = 51.6211
RA_OF_ASC_NODE = 81.6018
ARG_OF_PERICENTER = 62.4231
MEAN_ANOMALY   = 297.7478

EPHEMERIS_TYPE = 0
CLASSIFICATION_TYPE = U
NORAD_CAT_ID   = 66911
ELEMENT_SET_NO = 999
REV_AT_EPOCH   = 1465
BSTAR          = .16237106E-2
MEAN_MOTION_DOT = .237204E-2
MEAN_MOTION_DDOT = 0

CCSDS_OMM_VERS = 2.0
CREATION_DATE  = 
ORIGINATOR     = 

OBJECT_NAME    = ISS OBJECT XY
OBJECT_ID      = 1998-067XY
CENTER_NAME    = EARTH
REF_FRAME      = TEME
TIME_SYSTEM    = UTC
MEAN_ELEMENT_THEORY = SGP/SGP4

EPOCH          = 2026-03-06T06:10:52.212000
MEAN_MOTION    = 15.62944629
ECCENTRICITY   = .00030319
INCLINATION    = 51.6266
RA_OF_ASC_NODE = 84.4872
ARG_OF_PERICENTER = 69.1167
MEAN_ANOMALY   = 291.0151

EPHEMERIS_TYPE = 0
CLASSIFICATION_TYPE = U
NORAD_CAT_ID   = 66912
ELEMENT_SET_NO = 999
REV_AT_EPOCH   = 1461
BSTAR          = .9732072E-3
MEAN_MOTION_DOT = .90381E-3
MEAN_MOTION_DDOT = 0

CCSDS_OMM_VERS = 2.0
CREATION_DATE  = 
ORIGINATOR     = 

OBJECT_NAME    = ISS OBJECT XZ
OBJECT_ID      = 1998-067XZ
CENTER_NAME    = EARTH
REF_FRAME      = TEME
TIME_SYSTEM    = UTC
MEAN_ELEMENT_THEORY = SGP/SGP4

EPOCH          = 2026-03-06T05:59:43.261728
MEAN_MOTION    = 15.51506562
ECCENTRICITY   = .00094044
INCLINATION    = 51.6308
RA_OF_ASC_NODE = 88.9378
ARG_OF_PERICENTER = 174.3573
MEAN_ANOMALY   = 185.7524

EPHEMERIS_TYPE = 0
CLASSIFICATION_TYPE = U
NORAD_CAT_ID   = 67683
ELEMENT_SET_NO = 999
REV_AT_EPOCH   = 425
BSTAR          = .65901417E-3
MEAN_MOTION_DOT = .39477E-3
MEAN_MOTION_DDOT = 0

CCSDS_OMM_VERS = 2.0
CREATION_DATE  = 
ORIGINATOR     = 

OBJECT_NAME    = GXIBA-1
OBJECT_ID      = 1998-067YA
CENTER_NAME    = EARTH
REF_FRAME      = TEME
TIME_SYSTEM    = UTC
MEAN_ELEMENT_THEORY = SGP/SGP4

EPOCH          = 2026-03-06T05:27:54.582048
MEAN_MOTION    = 15.53679638
ECCENTRICITY   = .00109875
INCLINATION    = 51.6295
RA_OF_ASC_NODE = 88.7906
ARG_OF_PERICENTER = 164.2519
MEAN_ANOMALY   = 195.8815

EPHEMERIS_TYPE = 0
CLASSIFICATION_TYPE = U
NORAD_CAT_ID   = 67684
ELEMENT_SET_NO = 999
REV_AT_EPOCH   = 425
BSTAR          = .11559833E-2
MEAN_MOTION_DOT = .75699E-3
MEAN_MOTION_DDOT = 0

CCSDS_OMM_VERS = 2.0
CREATION_DATE  = 
ORIGINATOR     = 

OBJECT_NAME    = CORAL
OBJECT_ID      = 1998-067YB
CENTER_NAME    = EARTH
REF_FRAME      = TEME
TIME_SYSTEM    = UTC
MEAN_ELEMENT_THEORY = SGP/SGP4

EPOCH          = 2026-03-06T05:54:25.554240
MEAN_MOTION    = 15.51824110
ECCENTRICITY   = .00113231
INCLINATION    = 51.6312
RA_OF_ASC_NODE = 88.9138
ARG_OF_PERICENTER = 170.6186
MEAN_ANOMALY   = 189.5017

EPHEMERIS_TYPE = 0
CLASSIFICATION_TYPE = U
NORAD_CAT_ID   = 67685
ELEMENT_SET_NO = 999
REV_AT_EPOCH   = 425
BSTAR          = .70253126E-3
MEAN_MOTION_DOT = .42651E-3
MEAN_MOTION_DDOT = 0

CCSDS_OMM_VERS = 2.0
CREATION_DATE  = 
ORIGINATOR     = 

OBJECT_NAME    = ISS OBJECT YC
OBJECT_ID      = 1998-067YC
CENTER_NAME    = EARTH
REF_FRAME      = TEME
TIME_SYSTEM    = UTC
MEAN_ELEMENT_THEORY = SGP/SGP4

EPOCH          = 2026-03-06T05:48:04.208832
MEAN_MOTION    = 15.52288949
ECCENTRICITY   = .00078092
INCLINATION    = 51.6306
RA_OF_ASC_NODE = 88.8853
ARG_OF_PERICENTER = 138.1788
MEAN_ANOMALY   = 221.9799

EPHEMERIS_TYPE = 0
CLASSIFICATION_TYPE = U
NORAD_CAT_ID   = 67686
ELEMENT_SET_NO = 999
REV_AT_EPOCH   = 425
BSTAR          = .81032975E-3
MEAN_MOTION_DOT = .50083E-3
MEAN_MOTION_DDOT = 0

CCSDS_OMM_VERS = 2.0
CREATION_DATE  = 
ORIGINATOR     = 

OBJECT_NAME    = LEOPARD
OBJECT_ID      = 1998-067YD
CENTER_NAME    = EARTH
REF_FRAME      = TEME
TIME_SYSTEM    = UTC
MEAN_ELEMENT_THEORY = SGP/SGP4

EPOCH          = 2026-03-06T05:56:53.650752
MEAN_MOTION    = 15.51667616
ECCENTRICITY   = .00077913
INCLINATION    = 51.6309
RA_OF_ASC_NODE = 88.9257
ARG_OF_PERICENTER = 142.6903
MEAN_ANOMALY   = 217.4629

EPHEMERIS_TYPE = 0
CLASSIFICATION_TYPE = U
NORAD_CAT_ID   = 67687
ELEMENT_SET_NO = 999
REV_AT_EPOCH   = 417
BSTAR          = .70896947E-3
MEAN_MOTION_DOT = .42747E-3
MEAN_MOTION_DDOT = 0

CCSDS_OMM_VERS = 2.0
CREATION_DATE  = 
ORIGINATOR     = 

OBJECT_NAME    = ISS OBJECT YE
OBJECT_ID      = 1998-067YE
CENTER_NAME    = EARTH
REF_FRAME      = TEME
TIME_SYSTEM    = UTC
MEAN_ELEMENT_THEORY = SGP/SGP4

EPOCH          = 2026-03-06T05:50:55.071744
MEAN_MOTION    = 15.52071816
ECCENTRICITY   = .00077106
INCLINATION    = 51.6311
RA_OF_ASC_NODE = 88.8989
ARG_OF_PERICENTER = 138.4184
MEAN_ANOMALY   = 221.7393

EPHEMERIS_TYPE = 0
CLASSIFICATION_TYPE = U
NORAD_CAT_ID   = 67688
ELEMENT_SET_NO = 999
REV_AT_EPOCH   = 417
BSTAR          = .74592942E-3
MEAN_MOTION_DOT = .45678E-3
MEAN_MOTION_DDOT = 0

CCSDS_OMM_VERS = 2.0
CREATION_DATE  = 
ORIGINATOR     = 

OBJECT_NAME    = CREW DRAGON 12
OBJECT_ID      = 2026-031A
CENTER_NAME    = EARTH
REF_FRAME      = TEME
TIME_SYSTEM    = UTC
MEAN_ELEMENT_THEORY = SGP/SGP4

EPOCH          = 2026-03-06T05:19:41.493792
MEAN_MOTION    = 15.48470661
ECCENTRICITY   = .00081363
INCLINATION    = 51.6317
RA_OF_ASC_NODE = 89.5003
ARG_OF_PERICENTER = 162.2758
MEAN_ANOMALY   = 197.8515

EPHEMERIS_TYPE = 0
CLASSIFICATION_TYPE = U
NORAD_CAT_ID   = 67796
ELEMENT_SET_NO = 999
REV_AT_EPOCH   = 55567
BSTAR          = .15844115E-3
MEAN_MOTION_DOT = .8136E-4
MEAN_MOTION_DDOT = 0

